City,State,Zip,Longitude,Latitude
Bentonville,AR,72712,-94.1994,36.3358
Bryant,AR,72022,-92.5006,34.6208
Conway,AR,72032,-92.4371,35.1116
El Dorado,AR,71730,-92.6403,33.1972
Fort Smith,AR,72903,-94.359,35.3543
Hot Springs,AR,71913,-93.0714,34.4522
Little Rock,AR,72116,-92.2208,34.795
Little Rock,AR,72201,-92.2759,34.7435
Little Rock,AR,72205,-92.3898,34.7641
Little Rock,AR,72205,-92.3982,34.7267
Little Rock,AR,72211,-92.3943,34.7526
North Little Rock,AR,72117,-92.2245,34.789
Russellville,AR,72802,-93.1352,35.3038
Searcy,AR,72143,-91.691,35.2514
Springdale,AR,72762,-94.1836,36.1739
Texarkana,AR,71854,-94.043,33.4729
Flagstaff,AZ,86001,-111.6636,35.1804
Mesa,AZ,85206,-111.6921,33.3858
Mesa,AZ,85210,-111.8521,33.3906
Peoria,AZ,85382,-112.2328,33.635
Phoenix,AZ,85009,-112.1124,33.4795
Phoenix,AZ,85018,-111.9794,33.48
Phoenix,AZ,85023,-112.1146,33.6257
Phoenix,AZ,85035,-112.1663,33.4658
Phoenix,AZ,85044,-111.9736,33.3069
Prescott,AZ,86301,-112.3844,34.5512
Scottsdale,AZ,85260,-111.8901,33.5834
Tempe,AZ,85281,-111.977,33.4203
Tucson,AZ,85706,-110.9341,32.1248
Tucson,AZ,85710,-110.8566,32.2209
Tucson,AZ,85711,-110.9092,32.2239
Tucson,AZ,85743,-111.0931,32.3588
Anaheim,CA,92802,-117.9099,33.8043
Bakersfield,CA,93308,-119.0424,35.3833
Bakersfield,CA,93308,-119.0763,35.4404
Berkeley,CA,94710,-122.2956,37.8684
Bishop,CA,93514,-118.396,37.3665
Carlsbad,CA,92011,-117.314,33.1063
Chula Vista,CA,91910,-117.062,32.6474
Costa Mesa,CA,92626,-117.9205,33.6914
Davis,CA,95618,-121.7312,38.5408
Dublin,CA,94568,-121.9079,37.7062
Fairfield,CA,94534,-122.1276,38.2195
Fowler,CA,93625,-119.6839,36.6279
Fremont,CA,94538,-121.9449,37.4889
Fresno,CA,93720,-119.7833,36.8395
Fresno,CA,93721,-119.7801,36.7405
Fresno,CA,93722,-119.8806,36.8099
Hayward,CA,94541,-122.1178,37.6645
Hesperia,CA,92345,-117.346,34.4689
Inglewood,CA,90303,-118.3433,33.9313
Irvine,CA,92618,-117.7596,33.6759
La Palma,CA,90623,-118.0314,33.8604
Livermore,CA,94551,-121.7006,37.7152
Los Angeles,CA,90045,-118.3727,33.9456
Millbrae,CA,94030,-122.4009,37.6103
Monterey,CA,93940,-121.8604,36.6058
Moreno Valley,CA,92553,-117.2598,33.9396
Oakland,CA,94621,-122.1933,37.7425
Oceanside,CA,92054,-117.3845,33.2028
Ontario,CA,91764,-117.5729,34.0715
Paso Robles,CA,93446,-120.6714,35.6452
Rancho Cordova,CA,95670,-121.2709,38.6051
Redding,CA,96002,-122.358,40.5759
Ripon,CA,95366,-121.1416,37.7534
Sacramento,CA,95811,-121.5052,38.5979
Sacramento,CA,95841,-121.3573,38.6597
Salida,CA,95368,-121.0782,37.7096
San Bernardino,CA,92408,-117.2831,34.0658
San Diego,CA,92108,-117.1585,32.7635
San Diego,CA,92109,-117.2179,32.8069
San Diego,CA,92110,-117.1947,32.7493
San Jose,CA,95131,-121.9386,37.3781
Santa Ana,CA,92705,-117.8532,33.7101
Santa Barbara,CA,93101,-119.71,34.4269
South San Francisco,CA,94080,-122.4075,37.6507
Stevenson Ranch,CA,91381,-118.5648,34.3761
Stockton,CA,95219,-121.3445,37.983
Tehachapi,CA,93561,-118.4135,35.1259
Temecula,CA,92590,-117.1652,33.5229
Thousand Oaks,CA,91320,-118.91,34.1829
Tulare,CA,93274,-119.3371,36.2266
Ventura,CA,93003,-119.211,34.2513
Visalia,CA,93277,-119.3514,36.326
Vista,CA,92083,-117.217,33.1667
Aurora,CO,80012,-104.8266,39.6983
Castle Rock,CO,80109,-104.8656,39.3791
Colorado Springs,CO,80906,-104.798,38.7922
Colorado Springs,CO,80907,-104.8297,38.8957
Denver,CO,80216,-104.9942,39.7663
Denver,CO,80222,-104.941,39.6803
Denver,CO,80239,-104.8459,39.7769
Denver,CO,80249,-104.7722,39.8202
Fort Collins,CO,80524,-105.0084,40.5809
Fruita,CO,81521,-108.7395,39.1533
Golden,CO,80401,-105.1448,39.7637
Grand Junction,CO,81506,-108.5411,39.1145
Greenwood Village,CO,80112,-104.8788,39.5883
Greenwood Village,CO,80112,-104.8845,39.596
Henderson ,CO,80640,-104.9106,39.8611
Lakewood,CO,80227,-105.0762,39.6524
Louisville,CO,80027,-105.1621,39.9589
Loveland,CO,80538,-105.1304,40.408
Pueblo,CO,81008,-104.6164,38.3241
Rifle,CO,81650,-107.7736,39.524
Silverthorne,CO,80498,-106.0656,39.6305
Steamboat Springs,CO,80487,-106.8149,40.4484
Trinidad,CO,81082,-104.5212,37.1405
Westminster,CO,80021,-105.0747,39.8814
Westminster,CO,80030,-105.0518,39.853
Westminster,CO,80234,-104.9913,39.9147
Danbury,CT,06810,-73.407,41.416
New Britain,CT,06051,-72.7794,41.6675
New Haven,CT,06511,-72.92,41.294
Pawcatuck,CT,06379,-71.8448,41.3976
Stamford,CT,06902,-73.5622,41.0437
Windsor Locks,CT,06096,-72.6728,41.9195
Bonita Springs,FL,34134,-81.8068,26.3202
Brandon,FL,33510,-82.3271,27.9438
Clearwater,FL,33760,-82.7024,27.8667
Clearwater,FL,33762,-82.6785,27.8947
Clearwater,FL,33765,-82.7312,27.9663
Cocoa Beach,FL,32931,-80.6031,28.3687
Cocoa Beach,FL,32931,-80.6108,28.3336
Coral Springs,FL,33065,-80.2507,26.2684
Coral Springs,FL,33065,-80.2498,26.2744
Cutler Bay,FL,33189,-80.3662,25.5794
Daytona Beach,FL,32114,-81.082,29.1733
Daytona Beach,FL,32118,-81.014,29.2393
Deerfield Beach,FL,33441,-80.1095,26.3196
Deerfield Beach,FL,33442,-80.1192,26.3166
Fort Lauderdale,FL,33308,-80.111,26.1982
Fort Lauderdale,FL,33309,-80.2,26.1862
Fort Lauderdale,FL,33309,-80.1574,26.2034
Fort Lauderdale,FL,33319,-80.2029,26.1882
Fort Myers,FL,33907,-81.8722,26.59
Fort Myers,FL,33908,-81.9687,26.4933
Fort Myers,FL,33912,-81.7974,26.5493
Fort Pierce,FL,34945,-80.3965,27.4174
Fort Walton Beach,FL,32548,-86.6136,30.4042
Gainesville,FL,32605,-82.4167,29.6617
Hollywood,FL,33020,-80.1604,26.0364
Jacksonville,FL,32216,-81.5978,30.2482
Jacksonville,FL,32244,-81.7377,30.1945
Jacksonville,FL,32256,-81.5725,30.2193
Jacksonville,FL,32257,-81.6281,30.1838
Jupiter,FL,33477,-80.0864,26.9349
Lake Mary,FL,32746,-81.364,28.7487
Lakeland,FL,33809,-81.9711,28.0878
Lakeland,FL,33809,-81.9538,28.0969
Melbourne,FL,32940,-80.7216,28.2315
Miami,FL,33142,-80.264,25.8065
Miami,FL,33166,-80.3169,25.8097
Miami,FL,33172,-80.339,25.7995
Miami Lakes,FL,33016,-80.3293,25.9135
Naples,FL,34102,-81.7835,26.1393
Naples,FL,34104,-81.6876,26.1567
Ocala,FL,34474,-82.1828,29.1508
Orlando,FL,32812,-81.313,28.4591
Orlando,FL,32812,-81.3388,28.4522
Orlando,FL,32819,-81.453,28.481
Orlando,FL,32819,-81.4601,28.4631
Orlando,FL,32819,-81.4727,28.4451
Orlando,FL,32819,-81.4684,28.4407
Orlando,FL,32826,-81.2072,28.5885
Orlando,FL,32837,-81.4056,28.4284
Ormond Beach,FL,32174,-81.129,29.337
Panama City,FL,32405,-85.6422,30.1894
Panama City Beach,FL,32408,-85.7614,30.1744
Pensacola,FL,32514,-87.2212,30.5056
Pinellas Park,FL,33781,-82.6852,27.8401
Plantation,FL,33324,-80.2574,26.1138
Plantation,FL,33324,-80.2556,26.1062
Port Charlotte,FL,33980,-82.0484,27.0172
Port Orange,FL,32129,-81.028,29.1075
Saint Augustine,FL,32084,-81.4084,29.9186
Saint Petersburg,FL,33714,-82.6783,27.8167
Sarasota,FL,34234,-82.5472,27.3533
Sebring,FL,33870,-81.4311,27.4612
St Petersburg,FL,33702,-82.6388,27.8334
Sunrise,FL,33325,-80.3316,26.1236
Sunrise,FL,33325,-80.3313,26.1241
Tallahassee,FL,32303,-84.305,30.4819
Tampa,FL,33607,-82.5259,27.9596
Tampa,FL,33610,-82.358,27.9895
Tampa,FL,33611,-82.5232,27.8932
Tampa,FL,33612,-82.4181,28.0536
Tampa,FL,33612,-82.4266,28.0336
Tampa,FL,33614,-82.5064,28.0244
Tampa,FL,33619,-82.3342,27.9446
Tampa,FL,33647,-82.3711,28.1237
West Palm Beach,FL,33409,-80.091,26.7168
West Palm Beach,FL,33417,-80.1352,26.7081
Acworth,GA,30102,-84.6561,34.082
Alpharetta,GA,30022,-84.2892,34.0508
Atlanta,GA,30324,-84.3494,33.8236
Atlanta,GA,30328,-84.3515,33.923
Atlanta,GA,30337,-84.4541,33.6237
Atlanta,GA,30339,-84.4833,33.863
Augusta,GA,30907,-82.0463,33.5123
Brunswick,GA,31520,-81.5234,31.2172
Calhoun,GA,30701,-84.9154,34.4708
Columbus,GA,31906,-84.9413,32.4831
Columbus,GA,31909,-84.9482,32.5052
Conyers,GA,30012,-84.0058,33.6549
Dalton,GA,30720,-85.0028,34.7687
Douglasville,GA,30134,-84.7594,33.7315
Dublin,GA,31021,-82.9388,32.4869
Duluth,GA,30096,-84.0924,33.9751
Hinesville,GA,31313,-81.5672,31.8585
Kennesaw,GA,30144,-84.5679,34.0148
Kingsland,GA,31548,-81.6632,30.7897
LaGrange,GA,30241,-84.9736,33.0399
Locust Grove,GA,30248,-84.1236,33.3533
Macon,GA,31206,-83.7221,32.8072
Macon,GA,31210,-83.6852,32.9046
Newnan,GA,30265,-84.7581,33.3971
Norcross,GA,30093,-84.201,33.9142
Pooler,GA,31322,-81.2406,32.1142
Rome,GA,30161,-85.1533,34.2222
Roswell,GA,30076,-84.3288,34.0244
Savannah,GA,31405,-81.113,32.0152
Savannah,GA,31406,-81.1265,32
Savannah,GA,31419,-81.2815,32.0027
Snellville,GA,30078,-84.0365,33.8532
Statesboro,GA,30458,-81.7822,32.408
Stockbridge,GA,30281,-84.2743,33.5532
Union City,GA,30291,-84.5378,33.5743
Valdosta,GA,31601,-83.3277,30.8404
Carter Lake,IA,51510,-95.9141,41.281
Clive,IA,50325,-93.7798,41.6025
Davenport,IA,52807,-90.5233,41.5522
Boise,ID,83704,-116.2811,43.6107
Boise,ID,83705,-116.2144,43.5786
Caldwell,ID,83605,-116.6616,43.6619
Coeur d Alene,ID,83814,-116.7909,47.6969
Idaho Falls,ID,83406,-111.982,43.4755
Meridian,ID,83642,-116.3566,43.5976
Moscow,ID,83843,-117.0375,46.7339
Sandpoint,ID,83864,-116.5519,48.276
Twin Falls,ID,83301,-114.4693,42.592
Arlington Heights,IL,60004,-87.9998,42.1389
Bannockburn,IL,60015,-87.8846,42.1967
Bloomington,IL,61701,-89.0237,40.4838
Bolingbrook,IL,60440,-88.0849,41.6755
Champaign,IL,61820,-88.2447,40.1385
Chicago,IL,60606,-87.6353,41.8816
Chicago,IL,60606,-87.6353,41.8816
Chicago,IL,60606,-87.6353,41.8816
Chicago,IL,60606,-87.6353,41.8816
Chicago,IL,60606,-87.6353,41.8816
Chicago,IL,60606,-87.6353,41.8816
Chicago,IL,60606,-87.6353,41.8816
Chicago,IL,60606,-87.6353,41.8816
Chicago,IL,60606,-87.6353,41.8816
Chicago,IL,60606,-87.6353,41.8816
Chicago,IL,60606,-87.6353,41.8816
Chicago,IL,60606,-87.6353,41.8816
Chicago,IL,60615,-87.5858,41.8061
Collinsville,IL,62234,-90.017,38.6829
Elk Grove Village,IL,60007,-87.9584,42.0225
Gurnee,IL,60031,-87.9442,42.378
Hoffman Estates,IL,60195,-88.1459,42.0626
Matteson,IL,60443,-87.7407,41.5028
Moline,IL,61265,-90.4991,41.4564
Oakbrook Terrace,IL,60181,-87.9736,41.8478
OFallon,IL,62269,-89.9387,38.5885
Peru,IL,61354,-89.13,41.3631
Schaumburg,IL,60173,-88.0377,42.0383
Tinley Park,IL,60477,-87.7942,41.5574
Willowbrook,IL,60527,-87.9431,41.745
Auburn,IN,46706,-85.078,41.3649
Columbus,IN,47201,-85.9609,39.199
Evansville,IN,47715,-87.4549,37.9785
Fort Wayne,IN,46825,-85.1055,41.1788
Frankfort,IN,46041,-86.5453,40.2778
Greenwood,IN,46143,-86.076,39.6156
Indianapolis,IN,46203,-86.0804,39.702
Indianapolis,IN,46204,-86.1502,39.7669
Indianapolis,IN,46219,-86.0108,39.8019
Indianapolis,IN,46219,-86.0397,39.797
Indianapolis,IN,46241,-86.2583,39.7271
Indianapolis,IN,46241,-86.2509,39.7282
Indianapolis,IN,46268,-86.2281,39.92
Lafayette,IN,47905,-86.8155,40.4132
Merrillville,IN,46410,-87.32,41.4695
Plainfield,IN,46168,-86.3668,39.6736
South Bend,IN,46628,-86.3138,41.6965
Dodge City,KS,67801,-100.0473,37.7545
Emporia,KS,66801,-96.2189,38.4218
Lenexa,KS,66215,-94.7303,38.9582
Olathe,KS,66061,-94.8191,38.8559
Overland Park,KS,66212,-94.6707,38.9352
Salina,KS,67401,-97.6105,38.8784
Wichita,KS,67207,-97.251,37.6791
Wichita,KS,67209,-97.4065,37.6733
Bowling Green,KY,42104,-86.4183,36.9306
Elizabethtown,KY,42701,-85.8329,37.7092
Florence,KY,41042,-84.6356,39.0119
Lexington,KY,40509,-84.3851,37.9607
Lexington,KY,40511,-84.4816,38.1006
Louisville,KY,40213,-85.7279,38.1926
Louisville,KY,40299,-85.5363,38.221
Paducah,KY,42001,-88.6829,37.0861
Richmond,KY,40475,-84.3128,37.7694
Alexandria,LA,71303,-92.5216,31.3459
Baton Rouge,LA,70808,-91.1505,30.4259
Baton Rouge,LA,70809,-91.0637,30.3824
Baton Rouge,LA,70816,-91.0076,30.4464
Bossier City,LA,71111,-93.7129,32.5182
Boutte,LA,70039,-90.4124,29.8899
Broussard,LA,70518,-91.9489,30.1433
Covington,LA,70433,-90.1368,30.4487
Gonzales,LA,70737,-90.9504,30.2077
Gretna,LA,70056,-90.0392,29.9246
Hammond,LA,70403,-90.456,30.4688
Houma,LA,70360,-90.7603,29.6295
Iowa,LA,70647,-93.0157,30.2513
Kenner,LA,70062,-90.2405,30.0044
Lafayette,LA,70501,-92.0131,30.2521
Lafayette,LA,70503,-92.0135,30.204
Lake Charles,LA,70601,-93.2391,30.1979
Leesville,LA,71446,-93.238,31.0538
Metairie,LA,70001,-90.1549,29.9947
Metairie,LA,70003,-90.2058,30.0057
Morgan City,LA,70380,-91.1817,29.6958
New Iberia,LA,70560,-91.8566,29.9867
New Orleans,LA,70130,-90.069,29.9509
Shreveport,LA,71129,-93.8621,32.4494
Slidell,LA,70460,-89.8295,30.3118
Slidell,LA,70461,-89.7494,30.2825
Sulphur,LA,70663,-93.3765,30.2153
Walker,LA,70785,-90.8623,30.4737
Andover,MA,01810,-71.2088,42.6907
Auburn,MA,01501,-71.8415,42.1994
Milford,MA,01757,-71.4864,42.1489
Somerville,MA,02145,-71.0848,42.3945
Springfield,MA,01104,-72.5953,42.1095
Baltimore,MD,21237,-76.4907,39.3383
California,MD,20619,-76.4969,38.2926
Edgewood,MD,21040,-76.3098,39.4537
Elkton,MD,21921,-75.8038,39.6376
Glen Burnie,MD,21061,-76.6136,39.2031
Jessup,MD,20794,-76.7888,39.1712
Linthicum,MD,21090,-76.6851,39.1972
Ocean City,MD,21842,-75.0728,38.3614
Salisbury,MD,21801,-75.5966,38.3643
Waldorf,MD,20601,-76.8982,38.6403
Portland,ME,04102,-70.2819,43.6557
Canton,MI,48187,-83.447,42.3216
Romulus,MI,48174,-83.3418,42.2432
Southgate,MI,48195,-83.2263,42.2134
Utica,MI,48315,-83.0103,42.6283
Bloomington,MN,55420,-93.2764,44.8606
Bloomington,MN,55437,-93.3473,44.8558
Brooklyn Park,MN,55428,-93.3908,45.0818
Duluth,MN,55811,-92.1644,46.8101
Minnetonka,MN,55305,-93.4113,44.974
Rochester,MN,55904,-92.4629,43.9592
Blue Springs,MO,64015,-94.3041,39.0352
Branson,MO,65616,-93.2515,36.6427
Columbia,MO,65203,-92.3759,38.9683
Hazelwood,MO,63042,-90.3552,38.7808
Joplin,MO,64804,-94.4784,37.0531
Kansas City,MO,64116,-94.5588,39.147
Kansas City,MO,64152,-94.66,39.2442
Maryland Heights,MO,63043,-90.4637,38.7508
Saint Louis,MO,63146,-90.4345,38.6982
Springfield,MO,65803,-93.2648,37.2487
Springfield,MO,65803,-93.3464,37.2428
Springfield,MO,65807,-93.2957,37.1689
Biloxi,MS,39532,-88.9357,30.4458
Brandon,MS,39042,-90.0356,32.2761
Canton,MS,39046,-90.0682,32.6018
Hattiesburg,MS,39401,-89.3497,31.3277
Horn Lake,MS,38637,-90.0023,34.9616
Jackson,MS,39206,-90.1486,32.385
Meridian,MS,39301,-88.6915,32.3503
Moss Point,MS,39563,-88.5304,30.4429
Pearl,MS,39208,-90.1336,32.2635
Starkville,MS,39759,-88.7939,33.4811
Tupelo,MS,38804,-88.7156,34.277
Vicksburg,MS,39180,-90.839,32.3431
Belgrade,MT,59714,-111.1874,45.7643
Billings,MT,59101,-108.5605,45.7471
Bozeman,MT,59715,-111.0456,45.6986
Butte,MT,59701,-112.5026,45.9838
Glendive,MT,59330,-104.6967,47.1224
Great Falls,MT,59405,-111.307,47.499
Helena,MT,59601,-112.0033,46.5916
Kalispell,MT,59901,-114.2928,48.2097
Missoula,MT,59808,-114.0348,46.9117
Boone,NC,28607,-81.6688,36.2155
Cary,NC,27518,-78.7841,35.7358
Charlotte,NC,28208,-80.9209,35.2409
Charlotte,NC,28217,-80.8912,35.179
Conover,NC,28613,-81.2618,35.7003
Durham,NC,27707,-78.9722,35.9646
Durham,NC,27713,-78.8914,35.908
Greensboro,NC,27407,-79.8935,36.0537
Morrisville,NC,27560,-78.8166,35.8586
Morrisville,NC,27560,-78.817,35.8599
Raleigh,NC,27612,-78.6761,35.8336
Winston-Salem,NC,27103,-80.3102,36.0621
Bismarck,ND,58501,-100.7736,46.8296
Dickinson,ND,58601,-102.7932,46.895
Fargo,ND,58104,-96.864,46.8426
Grand Forks,ND,58201,-97.0863,47.9129
Minot,ND,58701,-101.3195,48.1989
Lincoln,NE,68521,-96.6834,40.855
North Platte,NE,69101,-100.7267,41.1085
Omaha,NE,68127,-96.08,41.2117
Omaha,NE,68134,-96.0754,41.2895
Manchester,NH,03102,-71.4727,43.0037
Salem,NH,03079,-71.2459,42.7744
Clifton,NJ,07014,-74.1342,40.8274
Fairfield,NJ,07004,-74.2733,40.8929
Mount Laurel,NJ,08054,-74.9564,39.9265
Paramus,NJ,07652,-74.0724,40.9473
Runnemede,NJ,08078,-75.0715,39.858
Secaucus,NJ,07094,-74.0494,40.7902
Somerset,NJ,08873,-74.5453,40.5521
Wayne,NJ,07470,-74.273,40.9472
West Long Branch,NJ,07764,-74.0198,40.3012
Albuquerque,NM,87106,-106.6217,35.0582
Albuquerque,NM,87107,-106.6219,35.1107
Albuquerque,NM,87109,-106.5852,35.1603
Albuquerque,NM,87109,-106.5888,35.1609
Albuquerque,NM,87121,-106.7084,35.1035
Artesia,NM,88210,-104.4238,32.8417
Carlsbad,NM,88220,-104.2313,32.3729
Clovis,NM,88101,-103.1963,34.444
Deming,NM,88030,-107.7133,32.2716
Farmington,NM,87401,-108.1915,36.7299
Gallup,NM,87301,-108.6656,35.5314
Hobbs,NM,88240,-103.1575,32.7368
Las Cruces,NM,88005,-106.7873,32.2906
Las Cruces,NM,88005,-106.7882,32.2923
Roswell,NM,88201,-104.5199,33.4158
Ruidoso Downs,NM,88346,-105.6225,33.3255
Santa Fe,NM,87507,-106.0192,35.6351
Santa Rosa,NM,88435,-104.6683,34.9455
Tucumcari,NM,88401,-103.7231,35.1546
Ely,NV,89301,-114.8707,39.2466
Las Vegas,NV,89115,-115.0619,36.238
Las Vegas,NV,89117,-115.3032,36.1457
Las Vegas,NV,89118,-115.1903,36.1005
Las Vegas,NV,89119,-115.1237,36.0705
Las Vegas,NV,89128,-115.2477,36.2115
Las Vegas,NV,89169,-115.1547,36.1168
Reno,NV,89502,-119.7824,39.5095
Armonk,NY,10504,-73.7073,41.121
Batavia,NY,14020,-78.1931,43.0173
Bohemia,NY,11716,-73.0955,40.7797
Brooklyn,NY,11215,-73.993,40.669
Elmsford,NY,10523,-73.8174,41.0735
Garden City,NY,11530,-73.6035,40.7339
Johnson City,NY,13790,-75.9709,42.1247
Latham,NY,12110,-73.7597,42.7511
Long Island City,NY,11101,-73.9282,40.744
New York,NY,10001,-73.9866,40.7477
Ozone Park,NY,11420,-73.8068,40.6841
Plattsburgh,NY,12901,-73.4965,44.6976
Rochester,NY,14606,-77.6794,43.1649
Rochester,NY,14623,-77.6163,43.1069
Verona,NY,13478,-75.5925,43.1223
Williamsville,NY,14221,-78.6966,42.9479
Canton,OH,44709,-81.4178,40.8578
Cincinnati,OH,45241,-84.4389,39.272
Cleveland,OH,44135,-81.8044,41.44
Columbus,OH,43228,-83.1463,39.9806
Dublin,OH,43017,-83.1332,40.0774
Grove City,OH,43123,-83.0454,39.8811
Independence,OH,44131,-81.6492,41.3941
Macedonia,OH,44056,-81.5171,41.299
Mansfield,OH,44903,-82.5105,40.6943
Mason,OH,45040,-84.3172,39.2941
North Olmsted,OH,44070,-81.9052,41.414
Perrysburg,OH,43551,-83.6064,41.5494
Piqua,OH,45356,-84.2259,40.1514
Reynoldsburg,OH,43068,-82.8318,39.9363
Sandusky,OH,44870,-82.6828,41.4272
Springdale,OH,45246,-84.4848,39.3003
Tipp City,OH,45371,-84.1918,39.9626
Ada,OK,74820,-96.6365,34.7818
Ardmore,OK,73401,-97.1634,34.1898
Bartlesville,OK,74006,-95.9351,36.7328
Catoosa,OK,74015,-95.7602,36.1678
Claremore,OK,74017,-95.6231,36.3029
Clinton,OK,73601,-98.9927,35.4942
Durant,OK,74701,-96.4057,34.0016
Edmond,OK,73034,-97.4283,35.6518
Elk City,OK,73644,-99.374,35.4223
Lawton,OK,73505,-98.4434,34.6248
McAlester,OK,74501,-95.7555,34.8994
Midwest City,OK,73110,-97.4224,35.4461
Moore,OK,73160,-97.4932,35.3191
Muskogee,OK,74401,-95.403,35.7662
Norman,OK,73072,-97.4828,35.2072
Oklahoma City,OK,73108,-97.6009,35.4584
Oklahoma City,OK,73132,-97.609,35.5454
Oklahoma City,OK,73134,-97.5701,35.6107
Shawnee,OK,74804,-96.9103,35.3852
Stillwater,OK,74074,-97.1308,36.1146
Tulsa,OK,74115,-95.9014,36.1617
Tulsa,OK,74135,-95.91,36.1032
Woodward,OK,73801,-99.3761,36.4111
Yukon,OK,73099,-97.7261,35.467
Albany,OR,97321,-123.0656,44.6415
Ashland,OR,97520,-122.7398,42.2258
Bend,OR,97702,-121.3156,44.0218
Eugene,OR,97401,-123.0807,44.0583
Grants Pass,OR,97526,-123.3194,42.4619
Newport,OR,97365,-124.0493,44.615
Portland,OR,97210,-122.7302,45.5535
Portland,OR,97220,-122.5469,45.5684
Salem,OR,97301,-122.9962,44.9206
Wilsonville,OR,97070,-122.7676,45.3363
Woodburn,OR,97071,-122.8825,45.1522
Chambersburg,PA,17201,-77.6334,39.9326
Erie,PA,16509,-80.041,42.0708
Harrisburg,PA,17111,-76.8047,40.2388
Harrisburg,PA,17112,-76.7137,40.3519
Moon Township,PA,15108,-80.2226,40.5079
Pittsburgh,PA,15237,-80.0099,40.528
Ronks,PA,17572,-76.1931,40.0238
Coventry,RI,02816,-71.55,41.6629
Warwick,RI,02888,-71.4351,41.7523
Charleston,SC,29407,-79.9625,32.7767
Charleston,SC,29420,-80.0489,32.9352
Columbia,SC,29209,-80.9501,33.97
Columbia,SC,29223,-80.9468,34.0761
Florence,SC,29501,-79.8048,34.2346
Greenville,SC,29607,-82.3019,34.8314
Greenville,SC,29615,-82.3378,34.8579
Myrtle Beach,SC,29577,-78.8889,33.7147
Myrtle Beach,SC,29577,-78.8485,33.7231
North Myrtle Beach,SC,29582,-78.6587,33.8446
Rapid City,SD,57701,-103.1489,44.0996
Sioux Falls,SD,57106,-96.7821,43.5145
Alcoa,TN,37701,-83.9823,35.8117
Chattanooga,TN,37408,-85.3116,35.0317
Chattanooga,TN,37419,-85.3627,35.0301
Chattanooga,TN,37421,-85.1581,35.0445
Clarksville,TN,37040,-87.2807,36.5956
Cookeville,TN,38501,-85.5047,36.1331
Franklin,TN,37067,-86.8233,35.9115
Goodlettsville,TN,37072,-86.7059,36.3224
Jackson,TN,38305,-88.8282,35.6688
Kingsport,TN,37663,-82.4312,36.5052
Knoxville,TN,37909,-83.9999,35.9457
Knoxville,TN,37914,-83.7746,35.9992
Lebanon,TN,37090,-86.3018,36.1813
Memphis,TN,38116,-90.0069,35.0676
Memphis,TN,38119,-89.8623,35.098
Memphis,TN,38133,-89.7815,35.2008
Memphis,TN,38134,-89.8616,35.1628
Nashville,TN,37204,-86.762,36.084
Nashville,TN,37214,-86.6912,36.1555
Nashville,TN,37214,-86.6663,36.1466
Pigeon Forge,TN,37863,-83.5529,35.7824
Pigeon Forge,TN,37863,-83.5798,35.8065
Sevierville,TN,37764,-83.5831,35.9353
Smyrna,TN,37167,-86.5681,35.9693
Abilene,TX,79601,-99.7227,32.4914
Abilene,TX,79606,-99.7788,32.4135
Alamo,TX,78516,-98.1193,26.19
Alice,TX,78332,-98.0435,27.7643
Allen,TX,75013,-96.6674,33.1167
Alvarado,TX,76009,-97.2238,32.4149
Alvin,TX,77511,-95.2301,29.4175
Amarillo,TX,79103,-101.8188,35.192
Amarillo,TX,79106,-101.9219,35.1891
Angleton,TX,77515,-95.458,29.1629
Arlington,TX,76011,-97.0657,32.755
Arlington,TX,76015,-97.123,32.6788
Austin,TX,78701,-97.7385,30.2722
Austin,TX,78717,-97.7922,30.4757
Austin,TX,78728,-97.6742,30.4749
Austin,TX,78735,-97.8174,30.2409
Austin,TX,78741,-97.7403,30.2335
Austin,TX,78741,-97.6918,30.2176
Austin,TX,78745,-97.7533,30.2147
Austin,TX,78752,-97.702,30.3391
Austin,TX,78759,-97.7187,30.4069
Balch Springs,TX,75180,-96.6073,32.7048
Bay City,TX,77414,-95.9285,28.9891
Baytown,TX,77521,-94.9784,29.8056
Beaumont,TX,77702,-94.1352,30.0832
Beaumont,TX,77707,-94.1613,30.0388
Bedford,TX,76021,-97.1224,32.8395
Beeville,TX,78102,-97.7245,28.4119
Belton,TX,76513,-97.4769,31.0303
Big Spring,TX,79720,-101.4963,32.2635
Boerne,TX,78006,-98.7496,29.791
Brenham,TX,77833,-96.3955,30.1373
Bridge City,TX,77611,-93.8493,30.0171
Bridgeport,TX,76426,-97.7569,33.2216
Brookshire,TX,77423,-95.9668,29.7774
Brownsville,TX,78520,-97.5191,25.9798
Brownwood,TX,76801,-98.979,31.7301
Burleson,TX,76028,-97.3162,32.5639
Cedar Hill,TX,75104,-96.9182,32.6166
Cedar Park,TX,78613,-97.8178,30.5244
Cleburne,TX,76031,-97.3949,32.3702
Cleveland,TX,77327,-95.0989,30.3317
Clute,TX,77531,-95.4122,29.0103
College Station,TX,77840,-96.3333,30.6274
College Station,TX,77845,-96.2835,30.5795
Columbus,TX,78934,-96.5387,29.6903
Conroe,TX,77303,-95.4831,30.3675
Corpus Christi,TX,78405,-97.4601,27.7567
Corpus Christi,TX,78408,-97.4518,27.8031
Corpus Christi,TX,78410,-97.5716,27.8477
Corpus Christi,TX,78412,-97.3589,27.7016
Corpus Christi,TX,78418,-97.2212,27.621
Corsicana,TX,75109,-96.4403,32.1002
Cotulla,TX,78014,-99.2449,28.4446
Dalhart,TX,79022,-102.5144,36.0694
Dallas,TX,75206,-96.7865,32.8198
Dallas,TX,75229,-96.8967,32.8822
Dallas,TX,75231,-96.7707,32.8833
Dallas,TX,75247,-96.8769,32.8227
Dallas,TX,75251,-96.772,32.9247
Decatur,TX,76234,-97.5888,33.2208
Deer Park,TX,77536,-95.0996,29.699
Del Rio,TX,78840,-100.9054,29.3839
Denison,TX,75020,-96.587,33.7648
Denton,TX,76207,-97.1766,33.2364
DeSoto,TX,75115,-96.8247,32.6011
Dumas,TX,79029,-101.9752,35.8422
Eagle Pass,TX,78852,-100.475,28.71
Eastland,TX,76448,-98.7917,32.4005
El Paso,TX,79905,-106.4082,31.781
El Paso,TX,79912,-106.5676,31.8376
El Paso,TX,79912,-106.5675,31.839
El Paso,TX,79915,-106.3469,31.752
El Paso,TX,79925,-106.3664,31.7662
El Paso,TX,79935,-106.3333,31.7459
Ennis,TX,75119,-96.6142,32.3361
Euless,TX,76040,-97.0891,32.8362
Fairfield,TX,75840,-96.1774,31.7264
Floresville,TX,78114,-98.1453,29.1349
Fort Stockton,TX,79735,-102.9084,30.8985
Fort Worth,TX,76116,-97.443,32.7345
Fort Worth,TX,76120,-97.1741,32.7612
Fort Worth,TX,76132,-97.4162,32.6778
Fort Worth,TX,76135,-97.4247,32.8027
Fort Worth,TX,76137,-97.3121,32.8278
Fredericksburg,TX,78624,-98.8492,30.254
Ft Worth,TX,76140,-97.272,32.66
Gainesville,TX,76240,-97.1528,33.6741
Galveston,TX,77550,-94.7798,29.2968
Galveston,TX,77554,-94.851,29.2528
Garland,TX,75043,-96.5732,32.8497
Georgetown,TX,78628,-97.6783,30.6541
Glen Rose,TX,76043,-97.7578,32.2383
Gonzales,TX,78629,-97.4624,29.5125
Granbury,TX,76048,-97.766,32.4352
Grand Prairie,TX,75052,-97.0321,32.6753
Gun Barrel City,TX,75156,-96.1415,32.3335
Harlingen,TX,78552,-97.7138,26.1821
Hillsboro,TX,76645,-97.0983,32.0176
Houston,TX,77015,-95.1626,29.8008
Houston,TX,77015,-95.2067,29.7731
Houston,TX,77027,-95.4551,29.7509
Houston,TX,77027,-95.4428,29.7284
Houston,TX,77032,-95.3311,29.9428
Houston,TX,77041,-95.5593,29.8332
Houston,TX,77061,-95.2621,29.654
Houston,TX,77064,-95.5508,29.904
Houston,TX,77065,-95.6182,29.9169
Houston,TX,77070,-95.5504,29.9572
Houston,TX,77072,-95.5584,29.7173
Houston,TX,77073,-95.4233,30.024
Houston,TX,77074,-95.5038,29.7141
Houston,TX,77077,-95.6008,29.7379
Houston,TX,77092,-95.4656,29.8183
Houston,TX,77094,-95.6512,29.7843
Humble,TX,77338,-95.296,29.9845
Humble,TX,77346,-95.1736,29.9961
Huntsville,TX,77340,-95.5701,30.7201
Hutchins,TX,75141,-96.7055,32.6493
Irving,TX,75038,-96.9598,32.8657
Irving,TX,75062,-97.0075,32.8377
Irving,TX,75063,-97.0157,32.9178
Jacksonville,TX,75766,-95.2542,31.9415
Joshua,TX,76058,-97.3844,32.4561
Jourdanton,TX,78026,-98.5325,28.9257
Karnes City,TX,78118,-97.8928,28.8709
Katy,TX,77450,-95.7617,29.7849
Kerrville,TX,78028,-99.1162,30.0671
Killeen,TX,76541,-97.7469,31.1099
Kingwood,TX,77339,-95.2526,30.0473
Kyle,TX,78640,-97.8476,30.0315
La Porte,TX,77571,-95.0293,29.6521
Laredo,TX,78041,-99.5032,27.532
Laredo,TX,78041,-99.4446,27.561
Lindale,TX,75771,-95.3949,32.4743
Livingston,TX,77351,-94.9527,30.7035
Longview,TX,75602,-94.7166,32.4501
Longview,TX,75605,-94.7321,32.5469
Lubbock,TX,79401,-101.8552,33.59
Lubbock,TX,79407,-101.9021,33.5759
Lubbock,TX,79416,-101.9189,33.6016
Lufkin,TX,75901,-94.7256,31.3052
Lumberton,TX,77657,-94.2181,30.2592
Magnolia,TX,77354,-95.5732,30.2211
Mansfield,TX,76063,-97.141,32.5932
Marble Falls,TX,78654,-98.2772,30.5611
Marshall,TX,75672,-94.3604,32.4864
Mathis,TX,78368,-97.8179,28.1108
McAllen,TX,78501,-98.232,26.1934
McKinney,TX,75070,-96.6997,33.139
Mercedes,TX,78570,-97.8804,26.1599
Mesquite,TX,75149,-96.5947,32.7888
Midland,TX,79703,-102.1222,31.9718
Midland,TX,79707,-102.1553,32.0068
Mission,TX,78572,-98.3064,26.1968
Missouri City,TX,77459,-95.5684,29.5706
Monahans,TX,79756,-102.9071,31.5718
Mt Pleasant,TX,75455,-95.0029,33.172
New Braunfels,TX,78130,-98.0922,29.6995
New Caney,TX,77357,-95.2293,30.1268
Odessa,TX,79761,-102.3129,31.8732
Odessa,TX,79765,-102.2886,31.9185
Orange,TX,77630,-93.8202,30.1128
Palestine,TX,75801,-95.6293,31.7342
Paris,TX,75460,-95.5178,33.6735
Pasadena,TX,77505,-95.1581,29.6586
Pasadena,TX,77506,-95.1833,29.7136
Pearland,TX,77584,-95.3594,29.5585
Pearsall,TX,78061,-99.119,28.8981
Pecos,TX,79772,-103.5011,31.3955
Pharr,TX,78577,-98.1792,26.2345
Pharr,TX,78577,-98.1784,26.2346
Plano,TX,75093,-96.7923,33.0157
Port Arthur,TX,77642,-93.9808,29.9372
Port Lavaca,TX,77979,-96.63,28.6321
Portland,TX,78374,-97.3105,27.8984
Raymondville,TX,78580,-97.77,26.4839
Richland Hills,TX,76118,-97.2079,32.8212
Rockport,TX,78382,-97.0418,28.0581
Rockwall,TX,75087,-96.4691,32.897
Rosenberg,TX,77471,-95.8118,29.5329
Round Rock,TX,78681,-97.6919,30.5298
San Angelo,TX,76904,-100.4758,31.416
San Antonio,TX,78201,-98.5337,29.4839
San Antonio,TX,78204,-98.4974,29.4202
San Antonio,TX,78205,-98.4825,29.4238
San Antonio,TX,78207,-98.4995,29.4243
San Antonio,TX,78216,-98.481,29.5189
San Antonio,TX,78218,-98.4018,29.4886
San Antonio,TX,78219,-98.3667,29.4437
San Antonio,TX,78223,-98.4294,29.3511
San Antonio,TX,78224,-98.5256,29.3557
San Antonio,TX,78227,-98.6276,29.4005
San Antonio,TX,78229,-98.5557,29.5165
San Antonio,TX,78232,-98.478,29.612
San Antonio,TX,78233,-98.3461,29.5559
San Antonio,TX,78238,-98.6281,29.4547
San Antonio,TX,78249,-98.597,29.5792
San Antonio,TX,78254,-98.6751,29.546
San Antonio,TX,78257,-98.6338,29.6744
San Marcos,TX,78666,-97.9099,29.8967
Schertz,TX,78154,-98.2779,29.6052
Seabrook,TX,77586,-95.0457,29.5645
Seguin,TX,78155,-97.9926,29.5813
Sherman,TX,75090,-96.6118,33.6683
South Padre Island,TX,78597,-97.17,26.1379
Stafford,TX,77477,-95.5844,29.6347
Stephenville,TX,76401,-98.2419,32.2017
Sulphur Springs,TX,75482,-95.5907,33.1186
Sweetwater,TX,79556,-100.4022,32.4501
Temple,TX,76504,-97.3567,31.1035
Terrell,TX,75160,-96.2776,32.7033
Texarkana,TX,75503,-94.045,33.4693
The Woodlands,TX,77381,-95.4528,30.18
The Woodlands,TX,77386,-95.4404,30.124
Tomball,TX,77375,-95.6334,30.0844
Tyler,TX,75701,-95.3206,32.3038
Tyler,TX,75701,-95.2658,32.3223
Victoria,TX,77901,-96.979,28.7675
Victoria,TX,77904,-96.9978,28.8662
Waco,TX,76706,-97.1256,31.5454
Waco,TX,76712,-97.1931,31.5105
Waxahachie,TX,75165,-96.8363,32.4166
Weatherford,TX,76086,-97.7901,32.7323
Webster,TX,77598,-95.1339,29.5452
Wichita Falls,TX,76306,-98.5187,33.9351
Wichita Falls,TX,76308,-98.5332,33.8632
Winnie,TX,77665,-94.3838,29.83
Layton,UT,84041,-111.988,41.0883
Logan,UT,84321,-111.8362,41.7165
Midvale,UT,84047,-111.9025,40.6199
Moab,UT,84532,-109.5473,38.5615
Orem,UT,84057,-111.7222,40.3113
Orem,UT,84058,-111.7082,40.2727
Provo,UT,84601,-111.6599,40.214
Saint George,UT,84790,-113.5828,37.063
Salt Lake City,UT,84116,-112.0082,40.7734
Salt Lake City,UT,84119,-111.9486,40.6956
Springdale,UT,84767,-112.9973,37.1894
Doswell,VA,23047,-77.4464,37.8499
Lynchburg,VA,24502,-79.1753,37.3683
Midlothian,VA,23113,-77.6116,37.5093
Norfolk,VA,23502,-76.211,36.8718
Radford,VA,24141,-80.5404,37.1268
Richmond,VA,23237,-77.4276,37.4011
Salem,VA,24153,-80.0324,37.3213
Virginia Beach,VA,23451,-75.9787,36.8564
Virginia Beach,VA,23462,-76.1846,36.8436
Williamsburg,VA,23185,-76.7098,37.2838
Wytheville,VA,24382,-81.061,36.9477
Saint Albans,VT,05478,-73.073,44.7939
South Burlington,VT,05403,-73.1732,44.4672
Auburn,WA,98002,-122.2271,47.3021
Bellingham,WA,98226,-122.5098,48.7893
Everett,WA,98204,-122.234,47.8833
Kennewick,WA,99338,-119.1765,46.186
Kirkland,WA,98033,-122.1998,47.6427
Lacey,WA,98516,-122.8212,47.0494
Lynnwood,WA,98036,-122.2913,47.8172
Seattle,WA,98121,-122.3395,47.6176
Seattle,WA,98188,-122.297,47.4351
Spokane,WA,99218,-117.4066,47.7449
Spokane Valley,WA,99216,-117.1955,47.6913
Tacoma,WA,98421,-122.4124,47.2396
Vancouver,WA,98685,-122.6566,45.7182
Walla Walla,WA,99362,-118.3427,46.071
Wenatchee,WA,98801,-120.3332,47.4516
Appleton,WI,54914,-88.4623,44.2623
Appleton,WI,54914,-88.464,44.2627
Brookfield,WI,53045,-88.1656,43.035
Delafield,WI,53018,-88.372,43.0478
Glendale,WI,53217,-87.9162,43.1096
Glendale,WI,53217,-87.9171,43.1154
Madison,WI,53718,-89.2914,43.1435
Milwaukee,WI,53225,-88.0556,43.1169
New Berlin,WI,53151,-88.1052,42.952
Oak Creek,WI,53154,-87.9317,42.9149
Oshkosh,WI,54902,-88.5817,44.0328
Pleasant Prairie,WI,53158,-87.9497,42.5665
Sheboygan,WI,53081,-87.7458,43.7572
Stevens Point,WI,54481,-89.5321,44.5231
Wausau,WI,54401,-89.6595,44.9591
Elkview,WV,25071,-81.5005,38.4569
Summersville,WV,26651,-80.834,38.2983
Casper,WY,82601,-106.3308,42.8575
Cheyenne,WY,82009,-104.8476,41.1202
Rock Springs,WY,82901,-109.2599,41.5792
